STARLINK-31984          
1 60018U 24111C   25229.92444643  .00003292  00000+0  12321-3 0  9997
2 60018  53.1611 302.2732 0001093  85.9990 274.1136 15.30198314 67682
STARLINK-31986          
1 60019U 24111D   25229.91494988  .00000212  00000+0  19281-4 0  9996
2 60019  53.1610 302.2110 0001080  96.3696 263.7428 15.30191446 67842
STARLINK-31883          
1 60020U 24111E   25230.19625679  .00000874  00000+0  41661-4 0  9994
2 60020  53.1605 301.1277 0001380  82.1959 277.9199 15.30188676 67829
STARLINK-31967          
1 60021U 24111F   25229.62097459  .00000772  00000+0  38183-4 0  9992
2 60021  53.1599 303.2212 0001211  85.5874 274.5265 15.30195560 67805
STARLINK-31982          
1 60022U 24111G   25229.61464333  .00001938  00000+0  77550-4 0  9997
2 60022  53.1603 303.1876 0001275  82.0723 278.0423 15.30189844 67805
STARLINK-31992          
1 60023U 24111H   25229.62414619  .00001671  00000+0  68543-4 0  9997
2 60023  53.1595 303.2412 0001145  78.4432 281.6697 15.30192602 67804
STARLINK-31990          
1 60024U 24111J   25229.90545164  .00000347  00000+0  23825-4 0  9992
2 60024  53.1592 302.1548 0000812  90.8825 269.2269 15.30194047 67839
STARLINK-31864          
1 60025U 24111K   25229.52463024  .00023912  00000+0  78407-3 0  9993
2 60025  53.1621 303.9799 0002063  36.3980 323.7162 15.31526009 67776
STARLINK-31939          
1 60026U 24111L   25229.63046993  .00001390  00000+0  59056-4 0  9994
2 60026  53.1585 303.2816 0001021  73.4842 286.6271 15.30195107 67791
STARLINK-32012          
1 60027U 24111M   25229.89489645  .00001378  00000+0  58654-4 0  9997
2 60027  53.1595 302.0849 0000890  76.8950 283.2150 15.30193279 67838
STARLINK-32008          
1 60028U 24111N   25229.50722860  .00000499  00000+0  28969-4 0  9994
2 60028  53.1592 303.9302 0001038  78.9884 281.1233 15.30194814 67772
STARLINK-32006          
1 60029U 24111P   25229.90861950 -.00000373  00000+0 -46986-6 0  9997
2 60029  53.1610 302.1766 0000954 102.6064 257.5043 15.30192243 67837
STARLINK-32011          
1 60030U 24111Q   25229.61676072  .00002273  00000+0  88922-4 0  9999
2 60030  53.1604 303.2013 0001437  85.2147 274.9018 15.30178459 67797
STARLINK-31878          
1 60031U 24111R   25229.79463544  .00000833  00000+0  40246-4 0  9994
2 60031  53.1592 250.9291 0001355  80.8257 279.2897 15.30191930 68290
STARLINK-32017          
1 60032U 24111S   25229.91284391  .00000842  00000+0  40575-4 0  9995
2 60032  53.1605 302.2198 0001000  94.6048 265.5067 15.30185502 67835
STARLINK-32005          
1 60034U 24111U   25229.90228671 -.00000110  00000+0  83970-5 0  9991
2 60034  53.1596 302.1342 0001012  97.7387 262.3729 15.30191090 67737
STARLINK-31981          
1 60035U 24111V   25230.18253712  .00022796  00000+0  77914-3 0  9990
2 60035  53.1606 301.0361 0001168 120.3099 239.8017 15.30211668 67805
STARLINK-31985          
1 60036U 24111W   25229.91812291 -.00002133  00000+0 -59979-4 0  9990
2 60036  53.1608 302.2282 0000975  87.0210 273.0902 15.30172294 67772
STARLINK-31918          
1 60037U 24111X   25229.62729836 -.00000824  00000+0 -15687-4 0  9994
2 60037  53.1591 303.2601 0001015  72.4208 287.6904 15.30201508 67720
STARLINK-11129 [DTC]    
1 60038U 24112A   25229.61110237  .00002642  00000+0  26660-4 0  9995
2 60038  53.1573 192.6356 0001406  89.6491 270.4688 15.69711331 68920
STARLINK-11140 [DTC]    
1 60039U 24112B   25229.92453659 -.00000556  00000+0  27144-6 0  9991
2 60039  53.1591 191.0336 0001272  96.9844 263.1319 15.69720353 68975
STARLINK-11122 [DTC]    
1 60040U 24112C   25230.17430631 -.00003632  00000+0 -25115-4 0  9990
2 60040  53.1598 189.7457 0001168  95.7214 264.3937 15.69728665 69428
STARLINK-11149 [DTC]    
1 60041U 24112D   25229.59638222  .00001131  00000+0  14189-4 0  9990
2 60041  53.1587 192.5380 0001120  77.7270 282.3873 15.69710186 68926
STARLINK-11120 [DTC]    
1 60042U 24112E   25230.16450355 -.00000513  00000+0  62285-6 0  9991
2 60042  53.1581 189.6815 0001254  83.5998 276.5163 15.69708734 69431
STARLINK-11086 [DTC]    
1 60043U 24112F   25230.15959214 -.00003115  00000+0 -20853-4 0  9994
2 60043  53.1596 189.6477 0001142  88.1566 271.9583 15.69715727 69435
STARLINK-11148 [DTC]    
1 60044U 24112G   25229.32698588  .00000787  00000+0  11352-4 0  9990
2 60044  53.1580 193.6961 0001201  67.8135 292.3010 15.69712831 68887
STARLINK-11116 [DTC]    
1 60045U 24112H   25229.32208596 -.00000137  00000+0  37286-5 0  9992
2 60045  53.1599 193.6616 0001275  74.5263 285.5896 15.69707888 68885
STARLINK-11155 [DTC]    
1 60046U 24112J   25229.31717944 -.00000573  00000+0  13285-6 0  9992
2 60046  53.1590 193.6293 0001126  99.5151 260.5994 15.69708802 68885
STARLINK-11163 [DTC]    
1 60047U 24112K   25229.63061924  .00001346  00000+0  15970-4 0  9997
2 60047  53.1595 192.0287 0001149  90.3774 269.7376 15.69708089 68930
STARLINK-11135 [DTC]    
1 60048U 24112L   25229.87058045 -.00000135  00000+0  37432-5 0  9998
2 60048  53.1597 190.6920 0001150  82.2384 277.8764 15.69716521 68975
STARLINK-11151 [DTC]    
1 60049U 24112M   25230.13506863 -.00000856  00000+0 -22031-5 0  9996
2 60049  53.1591 189.4863 0001284  78.3047 281.8115 15.69712694 69436
STARLINK-11137 [DTC]    
1 60050U 24112N   25230.19385221 -.00005041  00000+0 -36807-4 0  9993
2 60050  53.1585 189.1372 0001247  46.5805 313.5316 15.69686773 69446
STARLINK-31811          
1 60051U 24112P   25229.91976515 -.00000003  00000+0  12018-4 0  9994
2 60051  53.1596 304.8340 0000857  81.6918 278.4180 15.30201835 67391
STARLINK-31775          
1 60052U 24112Q   25230.17153332  .00000280  00000+0  21588-4 0  9997
2 60052  53.1596 303.5625 0001041  85.0079 275.1041 15.30199170 67697
STARLINK-31793          
1 60053U 24112R   25229.91660628  .00000198  00000+0  18818-4 0  9999
2 60053  53.1608 304.8152 0000954 100.5169 259.5939 15.30192982 67759
STARLINK-31735          
1 60054U 24112S   25229.51205290  .00001423  00000+0  60180-4 0  9997
2 60054  53.1600 306.5548 0000982  79.1890 280.9221 15.30194064 67332
STARLINK-31788          
1 60055U 24112T   25230.22734727 -.00002039  00000+0 -56739-4 0  9991
2 60055  53.1603 303.1982 0001086  80.3612 279.7511 15.30208352 67764
STARLINK-31825          
1 60056U 24112U   25230.23369591 -.00001077  00000+0 -24269-4 0  9990
2 60056  53.1608 303.2407 0001225  92.6721 267.4420 15.30184727 67712
STARLINK-31437          
1 60057U 24112V   25229.91344223  .00001290  00000+0  55702-4 0  9990
2 60057  53.1608 304.7934 0002455  77.9308 282.1968 15.30192136 67823
STARLINK-11181 [DTC]    
1 60059U 24113A   25229.97470829 -.00001094  00000+0 -41685-5 0  9991
2 60059  53.1591 115.5897 0001056  84.3913 275.7225 15.69724447 67981
STARLINK-11176 [DTC]    
1 60060U 24113B   25229.96980340  .00003988  00000+0  37769-4 0  9995
2 60060  53.1596 115.5556 0000851  91.0348 269.0767 15.69702852 67566
STARLINK-11167 [DTC]    
1 60061U 24113C   25229.96489834  .00000856  00000+0  11915-4 0  9994
2 60061  53.1590 115.5241 0001022  91.2399 268.8736 15.69721141 67869
STARLINK-11166 [DTC]    
1 60062U 24113D   25230.08733907  .00000005  00000+0  49012-5 0  9999
2 60062  53.1591 114.8637 0000921 100.2084 259.9037 15.69701316 67880
STARLINK-11165 [DTC]    
1 60063U 24113E   25230.08243853  .00003812  00000+0  36355-4 0  9990
2 60063  53.1585 114.8300 0001048  90.4696 269.6442 15.69679030 67785
STARLINK-11169 [DTC]    
1 60064U 24113F   25229.95018617 -.00003228  00000+0 -21783-4 0  9995
2 60064  53.1596 115.4257 0001114 108.3283 251.7856 15.69719897 67564
STARLINK-11102 [DTC]    
1 60065U 24113G   25229.94527974 -.00000531  00000+0  47636-6 0  9996
2 60065  53.1604 115.3943 0001349  95.4247 264.6925 15.69715226 67564
STARLINK-11141 [DTC]    
1 60066U 24113H   25230.06773053  .00014106  00000+0  12150-3 0  9995
2 60066  53.1588 114.7322 0001134  86.0733 274.0414 15.69627599 67897
STARLINK-11153 [DTC]    
1 60067U 24113J   25229.93556731 -.00000900  00000+0 -25728-5 0  9998
2 60067  53.1586 116.0604 0000940  85.7346 274.3779 15.69720818 67866
STARLINK-11170 [DTC]    
1 60068U 24113K   25230.05800987 -.00002270  00000+0 -13888-4 0  9994
2 60068  53.1588 115.4013 0000908  92.2932 267.8190 15.69708262 67935
STARLINK-11171 [DTC]    
1 60069U 24113L   25230.11676937  .00021949  00000+0  18546-3 0  9995
2 60069  53.1577 115.0537 0000906  94.9282 265.1840 15.69720640 67898
STARLINK-11186 [DTC]    
1 60070U 24113M   25229.92085198  .00000223  00000+0  66978-5 0  9993
2 60070  53.1593 115.9645 0001068  97.1563 262.9577 15.69712366 67960
STARLINK-11184 [DTC]    
1 60071U 24113N   25229.91595305 -.00000077  00000+0  42168-5 0  9992
2 60071  53.1586 115.9683 0000841  90.6075 269.5039 15.69711075 67556
STARLINK-32032          
1 60077U 24113U   25229.70933998  .00000573  00000+0  31488-4 0  9991
2 60077  53.1595 226.2992 0001235  91.9701 268.1441 15.30190406 66007
STARLINK-31441          
1 60091U 24117A   25229.81632471 -.00000066  00000+0  99030-5 0  9991
2 60091  53.1600 264.0174 0001292  92.6931 267.4217 15.30189018 65670
STARLINK-32044          
1 60092U 24117B   25229.79627110  .00001089  00000+0  48885-4 0  9999
2 60092  53.1592 263.8909 0001122  85.7163 274.3966 15.30194256 65674
STARLINK-31239          
1 60093U 24117C   25230.11029325  .00000484  00000+0  28449-4 0  9994
2 60093  53.1591 263.0120 0001159  78.3575 281.7555 15.30198874 65661
STARLINK-32007          
1 60094U 24117D   25229.83531799  .00002039  00000+0  80969-4 0  9998
2 60094  53.1585 264.1387 0001180  78.2728 281.8405 15.30195303 65675
STARLINK-32028          
1 60095U 24117E   25229.82581751 -.00000343  00000+0  53635-6 0  9990
2 60095  53.1600 264.0785 0001326  78.8620 281.2529 15.30193989 65673
STARLINK-32016          
1 60096U 24117F   25230.10607907 -.00002042  00000+0 -56858-4 0  9993
2 60096  53.1596 262.9857 0000728  95.0084 265.1000 15.30186751 65657
